STARLINK-30902          
1 58421U 23180V   26067.36315464  .00059609  00000+0  21801-2 0  9999
2 58421  43.0021  59.9880 0001666 292.4391  67.6284 15.27248303127312
TOMORROW-S2             
1 60485U 24149T   26068.75188364  .00008133  00000+0  27683-3 0  9990
2 60485  97.3857 150.0385 0001648 234.3331 125.7757 15.30674935 86869
